{"type": "FeatureCollection", "features": [ {"type": "Feature", "properties": {"norad_id": 28649, "name": "IRS-P5 (CARTOSAT-1)", "group": "resource", "lat": -32.34309140311906, "lon": 7.965744780776328, "alt_km": 602.8977259953772, "timestamp": "2025-12-02T06:27:52.677542+00:00", "meta": {"OBJECT_NAME": "IRS-P5 (CARTOSAT-1)", "OBJECT_ID": "2005-017A", "EPOCH": "2025-12-01T16:06:30.814272", "MEAN_MOTION": 14.90341171, "ECCENTRICITY": 0.0001861, "INCLINATION": 97.551, "RA_OF_ASC_NODE": 2.5757, "ARG_OF_PERICENTER": 54.407, "MEAN_ANOMALY": 305.7322, "EPHEMERIS_TYPE": 0, "CLASSIFICATION_TYPE": "U", "NORAD_CAT_ID": 28649, "ELEMENT_SET_NO": 999, "REV_AT_EPOCH": 11439, "BSTAR": 0.00017586, "MEAN_MOTION_DOT": 1.658e-05, "MEAN_MOTION_DDOT": 0}, "tle": {"line1": "1 28649U 05017A   25335.67118998  .00001658  00000+0  17586-3 0  9998", "line2": "2 28649  97.5510   2.5757 0001861  54.4070 305.7322 14.90341171114391"}}, "geometry": {"type": "Point", "coordinates": [7.965744780776328, -32.34309140311906]}}, {"type": "Feature", "properties": {"norad_id": 28893, "name": "SINAH 1", "group": "resource", "lat": -54.18950723042115, "lon": -86.81609479310188, "alt_km": 683.3162862767576, "timestamp": "2025-12-02T06:27:52.677553+00:00", "meta": {"OBJECT_NAME": "SINAH 1", "OBJECT_ID": "2005-043D", "EPOCH": "2025-12-01T19:33:11.177280", "MEAN_MOTION": 14.63941601, "ECCENTRICITY": 0.0014727, "INCLINATION": 98.2598, "RA_OF_ASC_NODE": 104.3433, "ARG_OF_PERICENTER": 169.9302, "MEAN_ANOMALY": 190.2198, "EPHEMERIS_TYPE": 0, "CLASSIFICATION_TYPE": "U", "NORAD_CAT_ID": 28893, "ELEMENT_SET_NO": 999, "REV_AT_EPOCH": 7164, "BSTAR": 0.00011837, "MEAN_MOTION_DOT": 5.71e-06, "MEAN_MOTION_DDOT": 0}, "tle": {"line1": "1 28893U 05043D   25335.81471270  .00000571  00000+0  11837-3 0  9995", "line2": "2 28893  98.2598 104.3433 0014727 169.9302 190.2198 14.63941601 71645"}}, "geometry": {"type": "Point", "coordinates": [-86.81609479310188, -54.18950723042115]}}, {"type": "Feature", "properties": {"norad_id": 29079, "name": "EROS B", "group": "resource", "lat": -4.681899191339712, "lon": 92.98124914813052, "alt_km": 380.098558429273, "timestamp": "2025-12-02T06:27:52.677564+00:00", "meta": {"OBJECT_NAME": "EROS B", "OBJECT_ID": "2006-014A", "EPOCH": "2025-12-01T21:16:21.616320", "MEAN_MOTION": 15.64149688, "ECCENTRICITY": 0.0002594, "INCLINATION": 97.3487, "RA_OF_ASC_NODE": 91.9768, "ARG_OF_PERICENTER": 233.2165, "MEAN_ANOMALY": 126.8856, "EPHEMERIS_TYPE": 0, "CLASSIFICATION_TYPE": "U", "NORAD_CAT_ID": 29079, "ELEMENT_SET_NO": 999, "REV_AT_EPOCH": 8910, "BSTAR": 0.0014298, "MEAN_MOTION_DOT": 0.00137505, "MEAN_MOTION_DDOT": 0}, "tle": {"line1": "1 29079U 06014A   25335.88636130  .00137505  00000+0  14298-2 0  9997", "line2": "2 29079  97.3487  91.9768 0002594 233.2165 126.8856 15.64149688 89105"}}, "geometry": {"type": "Point", "coordinates": [92.98124914813052, -4.681899191339712]}}, {"type": "Feature", "properties": {"norad_id": 29228, "name": "RESURS-DK 1", "group": "resource", "lat": 49.14930991690014, "lon": -76.11492594962729, "alt_km": 528.9850070418943, "timestamp": "2025-12-02T06:27:52.677574+00:00", "meta": {"OBJECT_NAME": "RESURS-DK 1", "OBJECT_ID": "2006-021A", "EPOCH": "2025-12-01T20:22:52.938048", "MEAN_MOTION": 15.12058271, "ECCENTRICITY": 0.0007821, "INCLINATION": 69.9322, "RA_OF_ASC_NODE": 129.9787, "ARG_OF_PERICENTER": 266.5808, "MEAN_ANOMALY": 93.4463, "EPHEMERIS_TYPE": 0, "CLASSIFICATION_TYPE": "U", "NORAD_CAT_ID": 29228, "ELEMENT_SET_NO": 999, "REV_AT_EPOCH": 7273, "BSTAR": 0.00020679, "MEAN_MOTION_DOT": 3.46e-05, "MEAN_MOTION_DDOT": 0}, "tle": {"line1": "1 29228U 06021A   25335.84922382  .00003460  00000+0  20679-3 0  9997", "line2": "2 29228  69.9322 129.9787 0007821 266.5808  93.4463 15.12058271 72732"}}, "geometry": {"type": "Point", "coordinates": [-76.11492594962729, 49.14930991690014]}}, {"type": "Feature", "properties": {"norad_id": 29268, "name": "ARIRANG-2 (KOMPSAT-2)", "group": "resource", "lat": 58.3609077319145, "lon": -1.848465455021365, "alt_km": 680.3981964002651, "timestamp": "2025-12-02T06:27:52.677585+00:00", "meta": {"OBJECT_NAME": "ARIRANG-2 (KOMPSAT-2)", "OBJECT_ID": "2006-031A", "EPOCH": "2025-12-01T20:36:30.070368", "MEAN_MOTION": 14.64477453, "ECCENTRICITY": 0.0014111, "INCLINATION": 97.8265, "RA_OF_ASC_NODE": 164.8619, "ARG_OF_PERICENTER": 345.0555, "MEAN_ANOMALY": 131.6878, "EPHEMERIS_TYPE": 0, "CLASSIFICATION_TYPE": "U", "NORAD_CAT_ID": 29268, "ELEMENT_SET_NO": 999, "REV_AT_EPOCH": 3259, "BSTAR": 9.1393e-05, "MEAN_MOTION_DOT": 4.4e-06, "MEAN_MOTION_DDOT": 0}, "tle": {"line1": "1 29268U 06031A   25335.85868137  .00000440  00000+0  91393-4 0  9997", "line2": "2 29268  97.8265 164.8619 0014111 345.0555 131.6878 14.64477453 32594"}}, "geometry": {"type": "Point", "coordinates": [-1.848465455021365, 58.3609077319145]}}, {"type": "Feature", "properties": {"norad_id": 29709, "name": "LAPAN-TUBSAT", "group": "resource", "lat": -22.012344026292286, "lon": -30.477901761258188, "alt_km": 622.6637896702223, "timestamp": "2025-12-02T06:27:52.677596+00:00", "meta": {"OBJECT_NAME": "LAPAN-TUBSAT", "OBJECT_ID": "2007-001A", "EPOCH": "2025-12-01T20:51:57.570912", "MEAN_MOTION": 14.85643264, "ECCENTRICITY": 0.0013567, "INCLINATION": 98.1251, "RA_OF_ASC_NODE": 325.8029, "ARG_OF_PERICENTER": 106.2693, "MEAN_ANOMALY": 254.0014, "EPHEMERIS_TYPE": 0, "CLASSIFICATION_TYPE": "U", "NORAD_CAT_ID": 29709, "ELEMENT_SET_NO": 999, "REV_AT_EPOCH": 2185, "BSTAR": 9.3658e-05, "MEAN_MOTION_DOT": 7.55e-06, "MEAN_MOTION_DDOT": 0}, "tle": {"line1": "1 29709U 07001A   25335.86941633  .00000755  00000+0  93658-4 0  9994", "line2": "2 29709  98.1251 325.8029 0013567 106.2693 254.0014 14.85643264 21858"}}, "geometry": {"type": "Point", "coordinates": [-30.477901761258188, -22.012344026292286]}}, {"type": "Feature", "properties": {"norad_id": 31113, "name": "HAIYANG-1B", "group": "resource", "lat": 56.999341266881146, "lon": 154.02016672904819, "alt_km": 777.0420502218776, "timestamp": "2025-12-02T06:27:52.677606+00:00", "meta": {"OBJECT_NAME": "HAIYANG-1B", "OBJECT_ID": "2007-010A", "EPOCH": "2025-12-01T19:49:44.090400", "MEAN_MOTION": 14.30958911, "ECCENTRICITY": 0.0014618, "INCLINATION": 98.3307, "RA_OF_ASC_NODE": 320.5558, "ARG_OF_PERICENTER": 68.1277, "MEAN_ANOMALY": 292.146, "EPHEMERIS_TYPE": 0, "CLASSIFICATION_TYPE": "U", "NORAD_CAT_ID": 31113, "ELEMENT_SET_NO": 999, "REV_AT_EPOCH": 97240, "BSTAR": 6.7405e-05, "MEAN_MOTION_DOT": 1.36e-06, "MEAN_MOTION_DDOT": 0}, "tle": {"line1": "1 31113U 07010A   25335.82620475  .00000136  00000+0  67405-4 0  9994", "line2": "2 31113  98.3307 320.5558 0014618  68.1277 292.1460 14.30958911972407"}}, "geometry": {"type": "Point", "coordinates": [154.02016672904819, 56.999341266881146]}}, {"type": "Feature", "properties": {"norad_id": 31598, "name": "COSMO-SKYMED 1", "group": "resource", "lat": -80.02855460877157, "lon": -146.37783670153635, "alt_km": 588.7700896816941, "timestamp": "2025-12-02T06:27:52.677617+00:00", "meta": {"OBJECT_NAME": "COSMO-SKYMED 1", "OBJECT_ID": "2007-023A", "EPOCH": "2025-12-01T19:35:58.947072", "MEAN_MOTION": 14.95637522, "ECCENTRICITY": 0.0001531, "INCLINATION": 97.8847, "RA_OF_ASC_NODE": 161.1449, "ARG_OF_PERICENTER": 84.2781, "MEAN_ANOMALY": 275.8614, "EPHEMERIS_TYPE": 0, "CLASSIFICATION_TYPE": "U", "NORAD_CAT_ID": 31598, "ELEMENT_SET_NO": 999, "REV_AT_EPOCH": 27, "BSTAR": 0.0003781, "MEAN_MOTION_DOT": 4.143e-05, "MEAN_MOTION_DDOT": 0}, "tle": {"line1": "1 31598U 07023A   25335.81665448  .00004143  00000+0  37810-3 0  9991", "line2": "2 31598  97.8847 161.1449 0001531  84.2781 275.8614 14.95637522   273"}}, "geometry": {"type": "Point", "coordinates": [-146.37783670153635, -80.02855460877157]}}, {"type": "Feature", "properties": {"norad_id": 31698, "name": "TERRASAR-X", "group": "resource", "lat": 49.45980306503173, "lon": 170.5976394345643, "alt_km": 502.9987300202856, "timestamp": "2025-12-02T06:27:52.677628+00:00", "meta": {"OBJECT_NAME": "TERRASAR-X", "OBJECT_ID": "2007-026A", "EPOCH": "2025-12-01T15:40:02.654400", "MEAN_MOTION": 15.19150274, "ECCENTRICITY": 0.00019062, "INCLINATION": 97.4444, "RA_OF_ASC_NODE": 341.1963, "ARG_OF_PERICENTER": 89.1201, "MEAN_ANOMALY": 271.0252, "EPHEMERIS_TYPE": 0, "CLASSIFICATION_TYPE": "U", "NORAD_CAT_ID": 31698, "ELEMENT_SET_NO": 999, "REV_AT_EPOCH": 2323, "BSTAR": 7.6522775e-05, "MEAN_MOTION_DOT": 1.54e-05, "MEAN_MOTION_DDOT": 0}, "tle": {"line1": "1 31698U 07026A   25335.65280850  .00001540  00000+0  76523-4 0  9990", "line2": "2 31698  97.4444 341.1963 0001906  89.1201 271.0252 15.19150274 23239"}}, "geometry": {"type": "Point", "coordinates": [170.5976394345643, 49.45980306503173]}}, {"type": "Feature", "properties": {"norad_id": 32060, "name": "WORLDVIEW-1 (WV-1)", "group": "resource", "lat": -70.72803263730646, "lon": 115.6684378315614, "alt_km": 500.3565380897944, "timestamp": "2025-12-02T06:27:52.677638+00:00", "meta": {"OBJECT_NAME": "WORLDVIEW-1 (WV-1)", "OBJECT_ID": "2007-041A", "EPOCH": "2025-12-01T19:45:10.793376", "MEAN_MOTION": 15.24402666, "ECCENTRICITY": 7.48e-05, "INCLINATION": 97.3832, "RA_OF_ASC_NODE": 93.46, "ARG_OF_PERICENTER": 91.8186, "MEAN_ANOMALY": 268.3137, "EPHEMERIS_TYPE": 0, "CLASSIFICATION_TYPE": "U", "NORAD_CAT_ID": 32060, "ELEMENT_SET_NO": 999, "REV_AT_EPOCH": 1281, "BSTAR": 0.00037999, "MEAN_MOTION_DOT": 9.247e-05, "MEAN_MOTION_DDOT": 0}, "tle": {"line1": "1 32060U 07041A   25335.82304159  .00009247  00000+0  37999-3 0  9994", "line2": "2 32060  97.3832  93.4600 0000748  91.8186 268.3137 15.24402666 12817"}}, "geometry": {"type": "Point", "coordinates": [115.6684378315614, -70.72803263730646]}}]}